OBJECT_NAME,OBJECT_ID,EPOCH,MEAN_MOTION,ECCENTRICITY,INCLINATION,RA_OF_ASC_NODE,ARG_OF_PERICENTER,MEAN_ANOMALY,EPHEMERIS_TYPE,CLASSIFICATION_TYPE,NORAD_CAT_ID,ELEMENT_SET_NO,REV_AT_EPOCH,BSTAR,MEAN_MOTION_DOT,MEAN_MOTION_DDOT
GSAT0216 (GALILEO 20),2017-079B,2026-07-04T07:37:16.297536,1.70474618,.00047851,55.0701,221.0351,276.4944,83.5267,0,U,43056,999,5329,0,.74E-6,0
GSAT0217 (GALILEO 21),2017-079C,2026-07-05T02:59:53.834496,1.70474294,.00034721,55.0683,221.0105,295.4550,64.5817,0,U,43057,999,5329,0,.75E-6,0
GSAT0218 (GALILEO 22),2017-079D,2026-07-02T23:58:07.273056,1.70474450,.000602,55.0684,221.0667,274.6008,85.4124,0,U,43058,999,5328,0,.74E-6,0
BEIDOU-3 M7 (C27),2018-003A,2026-07-02T22:08:14.952192,1.86228560,.00044862,54.3129,301.7665,96.9600,263.1105,0,U,43107,999,5764,0,-.61E-6,0
BEIDOU-3 M8 (C28),2018-003B,2026-07-03T22:34:48.076608,1.86231143,.00029388,54.3045,301.7129,257.9576,102.0322,0,U,43108,999,5767,0,-.59E-6,0
BEIDOU-3 M4 (C22),2018-018A,2026-06-30T02:07:08.825376,1.86231543,.0007448,56.6620,62.7232,23.9137,336.1827,0,U,43207,999,5698,0,-.5E-6,0
BEIDOU-3 M3 (C21),2018-018B,2026-07-04T23:41:50.476992,1.86231281,.00079169,56.6656,62.5664,344.1639,15.8794,0,U,43208,999,5707,0,-.37E-6,0
BEIDOU-3 M9 (C29),2018-029A,2026-07-05T04:55:39.565056,1.86228518,.0001017,54.1766,299.3192,177.5903,182.4380,0,U,43245,999,5623,0,-.58E-6,0
BEIDOU-3 M10 (C30),2018-029B,2026-07-05T03:20:59.984160,1.86229624,.00033183,54.1743,299.3474,34.9189,325.1304,0,U,43246,999,5621,0,-.57E-6,0
IRNSS-1I,2018-035A,2026-07-04T23:41:13.358688,1.00278933,.00177812,28.7931,73.9207,182.3699,77.0399,0,U,43286,999,3025,0,.82E-6,0
COSMOS 2527 (756),2018-053A,2026-07-03T00:57:03.763296,2.13102181,.00065848,65.5857,73.3790,232.7323,127.2748,0,U,43508,999,6261,0,-.7E-7,0
BEIDOU-2 IGSO-7 (C16),2018-057A,2026-07-01T21:23:21.693984,1.00246939,.01049468,55.1981,162.9292,237.8611,308.6338,0,U,43539,999,2927,0,-.33E-6,0
GSAT0221 (GALILEO 25),2018-060A,2026-07-03T11:44:36.561984,1.70476235,.00025435,57.1640,341.3408,292.9335,67.0341,0,U,43564,999,4944,0,-.75E-6,0
GSAT0222 (GALILEO 26),2018-060B,2026-07-04T21:10:19.164000,1.70475916,.00024713,57.1670,341.3069,237.6197,122.3538,0,U,43565,999,4951,0,-.72E-6,0
GSAT0219 (GALILEO 23),2018-060C,2026-07-02T04:04:57.428832,1.70476198,.00017741,57.1675,341.3816,308.8571,51.1194,0,U,43566,999,4944,0,-.79E-6,0
GSAT0220 (GALILEO 24),2018-060D,2026-07-04T03:37:14.147616,1.70476136,.00019817,57.1659,341.3289,299.0987,60.8773,0,U,43567,999,4946,0,-.73E-6,0
BEIDOU-3 M5 (C23),2018-062A,2026-07-03T05:10:37.776864,1.86228768,.00056478,54.0864,181.7591,291.2942,68.6461,0,U,43581,999,5393,0,.81E-6,0
BEIDOU-3 M6 (C24),2018-062B,2026-07-04T16:33:47.695104,1.86227898,.00051341,54.0862,181.6984,9.5945,350.4158,0,U,43582,999,5396,0,.95E-6,0
BEIDOU-3 M12 (C26),2018-067A,2026-07-05T03:58:20.758656,1.86227846,.00078869,54.1815,180.4305,30.0033,330.0410,0,U,43602,999,5345,0,.1E-5,0
BEIDOU-3 M11 (C25),2018-067B,2026-07-04T18:19:41.251296,1.86227303,.00046133,54.1789,180.4078,13.2813,346.7292,0,U,43603,999,5347,0,.96E-6,0
BEIDOU-3 M13 (C32),2018-072A,2026-07-04T04:21:21.537792,1.86231610,.00065674,56.6393,62.0988,332.0070,28.0272,0,U,43622,999,5297,0,-.36E-6,0
BEIDOU-3 M14 (C33),2018-072B,2026-07-05T02:54:00.021312,1.86231618,.00056455,56.6418,62.0624,6.3793,353.6959,0,U,43623,999,5298,0,-.37E-6,0
BEIDOU-3 M16 (C35),2018-078A,2026-07-05T06:37:19.000704,1.86232297,.00067975,54.0723,299.3519,40.3103,319.7677,0,U,43647,999,5249,0,-.58E-6,0
BEIDOU-3 M15 (C34),2018-078B,2026-06-30T00:51:23.712768,1.86232575,.00038812,54.0730,299.5360,58.0730,301.9745,0,U,43648,999,5241,0,-.71E-6,0
BEIDOU-3 G1 (C59),2018-085A,2026-07-04T11:38:13.339104,1.00270819,.00085284,2.9098,96.9192,354.0213,166.0185,0,U,43683,999,2823,0,-.98E-6,0
COSMOS 2529 (757),2018-086A,2026-07-02T04:44:16.979136,2.13102148,.0012102,64.2962,192.0874,256.3420,103.5558,0,U,43687,999,5960,0,.81E-6,0
BEIDOU-3 M17 (C36),2018-093A,2026-07-04T05:20:55.451328,1.86228469,.00101511,54.1701,181.7185,293.0453,245.7693,0,U,43706,999,5185,0,.91E-6,0
BEIDOU-3 M18 (C37),2018-093B,2026-07-04T08:33:25.425792,1.86226772,.0008082,54.1709,181.7059,321.4580,38.4844,0,U,43707,999,5185,0,.92E-6,0
GPS BIII-1  (PRN 04),2018-109A,2026-07-03T17:38:45.530880,2.00562540,.0038559,55.6910,91.5344,197.4684,354.7406,0,U,43873,999,5540,0,-.5E-7,0
BEIDOU-3 IGSO-1 (C38),2019-023A,2026-07-02T20:40:39.940032,1.00287534,.00256419,58.7163,37.4891,224.0382,88.2901,0,U,44204,999,736,0,-.197E-5,0
BEIDOU-2 G8 (C01),2019-027A,2026-07-05T07:41:05.339616,1.00275799,.00100878,1.7014,74.5137,285.6270,182.9105,0,U,44231,999,2626,0,-.234E-5,0
