GSAT0216 (GALILEO 20)   
1 43056U 17079B   26185.31754974  .00000074  00000+0  00000+0 0  9993
2 43056  55.0701 221.0351 0004785 276.4944  83.5267  1.70474618 53290
GSAT0217 (GALILEO 21)   
1 43057U 17079C   26186.12492864  .00000075  00000+0  00000+0 0  9992
2 43057  55.0683 221.0105 0003472 295.4550  64.5817  1.70474294 53293
GSAT0218 (GALILEO 22)   
1 43058U 17079D   26183.99869529  .00000074  00000+0  00000+0 0  9990
2 43058  55.0684 221.0667 0006020 274.6008  85.4124  1.70474450 53283
BEIDOU-3 M7             
1 43107U 18003A   26183.92239528 -.00000061  00000+0  00000+0 0  9993
2 43107  54.3129 301.7665 0004486  96.9600 263.1105  1.86228560 57649
BEIDOU-3 M8             
1 43108U 18003B   26184.94083422 -.00000059  00000+0  00000+0 0  9994
2 43108  54.3045 301.7129 0002938 257.9576 102.0322  1.86231143 57679
BEIDOU-3 M4             
1 43207U 18018A   26181.08829659 -.00000050  00000+0  00000+0 0  9993
2 43207  56.6620  62.7232 0007448  23.9137 336.1827  1.86231543 56984
BEIDOU-3 M3             
1 43208U 18018B   26185.98738978 -.00000037  00000+0  00000+0 0  9995
2 43208  56.6656  62.5664 0007916 344.1639  15.8794  1.86231281 57070
BEIDOU-3 M9             
1 43245U 18029A   26186.20531904 -.00000058  00000+0  00000+0 0  9997
2 43245  54.1766 299.3192 0001017 177.5903 182.4380  1.86228518 56238
BEIDOU-3 M10            
1 43246U 18029B   26186.13958315 -.00000057  00000+0  00000+0 0  9998
2 43246  54.1743 299.3474 0003318  34.9189 325.1304  1.86229624 56214
IRNSS-1I                
1 43286U 18035A   26185.98696017  .00000082  00000+0  00000+0 0  9996
2 43286  28.7931  73.9207 0017781 182.3699  77.0399  1.00278933 30253
COSMOS 2527 [GLONASS-M] 
1 43508U 18053A   26184.03962689 -.00000007  00000+0  00000+0 0  9997
2 43508  65.5857  73.3790 0006584 232.7323 127.2748  2.13102181 62617
BEIDOU-2 IGSO-7         
1 43539U 18057A   26182.89122331 -.00000033  00000+0  00000+0 0  9998
2 43539  55.1981 162.9292 0104946 237.8611 308.6338  1.00246939 29273
GSAT0221 (GALILEO 25)   
1 43564U 18060A   26184.48931206 -.00000075  00000+0  00000+0 0  9992
2 43564  57.1640 341.3408 0002543 292.9335  67.0341  1.70476235 49444
GSAT0222 (GALILEO 26)   
1 43565U 18060B   26185.88216625 -.00000072  00000+0  00000+0 0  9996
2 43565  57.1670 341.3069 0002471 237.6197 122.3538  1.70475916 49519
GSAT0219 (GALILEO 23)   
1 43566U 18060C   26183.17010913 -.00000079  00000+0  00000+0 0  9996
2 43566  57.1675 341.3816 0001774 308.8571  51.1194  1.70476198 49449
GSAT0220 (GALILEO 24)   
1 43567U 18060D   26185.15085819 -.00000073  00000+0  00000+0 0  9998
2 43567  57.1659 341.3289 0001981 299.0987  60.8773  1.70476136 49462
BEIDOU-3 M5             
1 43581U 18062A   26184.21571501  .00000081  00000+0  00000+0 0  9998
2 43581  54.0864 181.7591 0005647 291.2942  68.6461  1.86228768 53932
BEIDOU-3 M6             
1 43582U 18062B   26185.69013536  .00000095  00000+0  00000+0 0  9996
2 43582  54.0862 181.6984 0005134   9.5945 350.4158  1.86227898 53961
BEIDOU-3 M12            
1 43602U 18067A   26186.16551804  .00000100  00000+0  00000+0 0  9999
2 43602  54.1815 180.4305 0007886  30.0033 330.0410  1.86227846 53452
BEIDOU-3 M11            
1 43603U 18067B   26185.76367189  .00000096  00000+0  00000+0 0  9990
2 43603  54.1789 180.4078 0004613  13.2813 346.7292  1.86227303 53476
BEIDOU-3 M13            
1 43622U 18072A   26185.18149928 -.00000036  00000+0  00000+0 0  9997
2 43622  56.6393  62.0988 0006567 332.0070  28.0272  1.86231610 52975
BEIDOU-3 M14            
1 43623U 18072B   26186.12083358 -.00000037  00000+0  00000+0 0  9998
2 43623  56.6418  62.0624 0005645   6.3793 353.6959  1.86231618 52988
BEIDOU-3 M16            
1 43647U 18078A   26186.27591436 -.00000058  00000+0  00000+0 0  9990
2 43647  54.0723 299.3519 0006797  40.3103 319.7677  1.86232297 52495
BEIDOU-3 M15            
1 43648U 18078B   26181.03569112 -.00000071  00000+0  00000+0 0  9991
2 43648  54.0730 299.5360 0003881  58.0730 301.9745  1.86232575 52413
BEIDOU-3 G1             
1 43683U 18085A   26185.48487661 -.00000098  00000+0  00000+0 0  9998
2 43683   2.9098  96.9192 0008528 354.0213 166.0185  1.00270819 28231
COSMOS 2529 [GLONASS-M] 
1 43687U 18086A   26183.19741874  .00000081  00000+0  00000+0 0  9999
2 43687  64.2962 192.0874 0012102 256.3420 103.5558  2.13102148 59607
BEIDOU-3 M17            
1 43706U 18093A   26185.22286402  .00000091  00000+0  00000+0 0  9997
2 43706  54.1701 181.7185 0010151 293.0453 245.7693  1.86228469 51856
BEIDOU-3 M18            
1 43707U 18093B   26185.35654428  .00000092  00000+0  00000+0 0  9990
2 43707  54.1709 181.7059 0008082 321.4580  38.4844  1.86226772 51852
NAVSTAR 77 (USA 289)    
1 43873U 18109A   26184.73524920 -.00000005  00000+0  00000+0 0  9991
2 43873  55.6910  91.5344 0038559 197.4684 354.7406  2.00562540 55405
BEIDOU-3 IGSO-1         
1 44204U 19023A   26183.86157338 -.00000197  00000+0  00000+0 0  9996
2 44204  58.7163  37.4891 0025641 224.0382  88.2901  1.00287534  7361
BEIDOU-2 G8             
1 44231U 19027A   26186.32020069 -.00000234  00000+0  00000+0 0  9996
2 44231   1.7014  74.5137 0010087 285.6270 182.9105  1.00275799 26264
